{
    "links": {
        "self": "http://www.neowsapp.com/rest/v1/neo/54017202?api_key=iIulBulltgU6a56xZRHN4H3l9WmuAYTsLGpBGhQ2"
    },
    "id": "54017202",
    "neo_reference_id": "54017202",
    "name": "(2020 KW3)",
    "designation": "2020 KW3",
    "nasa_jpl_url": "http://ssd.jpl.nasa.gov/sbdb.cgi?sstr=54017202",
    "absolute_magnitude_h": 22.578,
    "estimated_diameter": {
        "kilometers": {
            "estimated_diameter_min": 0.081087699,
            "estimated_diameter_max": 0.181317607
        },
        "meters": {
            "estimated_diameter_min": 81.0876989721,
            "estimated_diameter_max": 181.3176070407
        },
        "miles": {
            "estimated_diameter_min": 0.0503855446,
            "estimated_diameter_max": 0.1126655028
        },
        "feet": {
            "estimated_diameter_min": 266.0357662957,
            "estimated_diameter_max": 594.8740578834
        }
    },
    "is_potentially_hazardous_asteroid": false,
    "close_approach_data": [
        {
            "close_approach_date": "2009-05-01",
            "close_approach_date_full": "2009-May-01 00:09",
            "epoch_date_close_approach": 1241136540000,
            "relative_velocity": {
                "kilometers_per_second": "6.7323003704",
                "kilometers_per_hour": "24236.2813335672",
                "miles_per_hour": "15059.4826986268"
            },
            "miss_distance": {
                "astronomical": "0.1961161223",
                "lunar": "76.2891715747",
                "kilometers": "29338554.168739501",
                "miles": "18230132.2179910738"
            },
            "orbiting_body": "Earth"
        },
        {
            "close_approach_date": "2020-05-24",
            "close_approach_date_full": "2020-May-24 00:50",
            "epoch_date_close_approach": 1590281400000,
            "relative_velocity": {
                "kilometers_per_second": "9.8091887611",
                "kilometers_per_hour": "35313.0795399732",
                "miles_per_hour": "21942.1743397128"
            },
            "miss_distance": {
                "astronomical": "0.2782526331",
                "lunar": "108.2402742759",
                "kilometers": "41626001.233651497",
                "miles": "25865197.7814327786"
            },
            "orbiting_body": "Earth"
        }
    ],
    "orbital_data": {
        "orbit_id": "3",
        "orbit_determination_date": "2020-07-25 06:40:14",
        "first_observation_date": "2020-04-19",
        "last_observation_date": "2020-06-12",
        "data_arc_in_days": 54,
        "observations_used": 33,
        "orbit_uncertainty": "6",
        "minimum_orbit_intersection": ".137374",
        "jupiter_tisserand_invariant": "3.332",
        "epoch_osculation": "2459000.5",
        "eccentricity": ".5193909914992557",
        "semi_major_axis": "2.385201396247323",
        "inclination": "6.230087574356367",
        "ascending_node_longitude": "228.4340639979451",
        "orbital_period": "1345.507147776449",
        "perihelion_distance": "1.146349278125017",
        "perihelion_argument": "356.2820337649251",
        "aphelion_distance": "3.62405351436963",
        "perihelion_time": "2458988.072265614915",
        "mean_anomaly": "3.325128659497887",
        "mean_motion": ".267557107069202",
        "equinox": "J2000",
        "orbit_class": {
            "orbit_class_type": "AMO",
            "orbit_class_description": "Near-Earth asteroid orbits similar to that of 1221 Amor",
            "orbit_class_range": "1.017 AU < q (perihelion) < 1.3 AU"
        }
    },
    "is_sentry_object": false
}